{
  "links" : {
    "next" : "https://api.nasa.gov/neo/rest/v1/feed?start_date=2014-12-09&end_date=2014-12-09&detailed=true&api_key=t0TVs3DtDT2H8Oy2Zy8m2eVrNsAVKAexjcZXUckd",
    "prev" : "https://api.nasa.gov/neo/rest/v1/feed?start_date=2014-12-07&end_date=2014-12-07&detailed=true&api_key=t0TVs3DtDT2H8Oy2Zy8m2eVrNsAVKAexjcZXUckd",
    "self" : "https://api.nasa.gov/neo/rest/v1/feed?start_date=2014-12-08&end_date=2014-12-08&detailed=true&api_key=t0TVs3DtDT2H8Oy2Zy8m2eVrNsAVKAexjcZXUckd"
  },
  "element_count" : 9,
  "near_earth_objects" : {
    "2014-12-08" : [ {
      "links" : {
        "self" : "https://api.nasa.gov/neo/rest/v1/neo/3699890?api_key=t0TVs3DtDT2H8Oy2Zy8m2eVrNsAVKAexjcZXUckd"
      },
      "neo_reference_id" : "3699890",
      "name" : "(2014 WV365)",
      "nasa_jpl_url" : "http://ssd.jpl.nasa.gov/sbdb.cgi?sstr=3699890",
      "absolute_magnitude_h" : 18.8,
      "estimated_diameter" : {
        "kilometers" : {
          "estimated_diameter_min" : 0.4619074603,
          "estimated_diameter_max" : 1.0328564805
        },
        "meters" : {
          "estimated_diameter_min" : 461.9074602816,
          "estimated_diameter_max" : 1032.8564805039
        },
        "miles" : {
          "estimated_diameter_min" : 0.2870159005,
          "estimated_diameter_max" : 0.6417870641
        },
        "feet" : {
          "estimated_diameter_min" : 1515.4444719902,
          "estimated_diameter_max" : 3388.6368554964
        }
      },
      "is_potentially_hazardous_asteroid" : false,
      "close_approach_data" : [ {
        "close_approach_date" : "2014-12-08",
        "epoch_date_close_approach" : 1418025600000,
        "relative_velocity" : {
          "kilometers_per_second" : "8.2684730957",
          "kilometers_per_hour" : "29766.5031444004",
          "miles_per_hour" : "18495.747467697"
        },
        "miss_distance" : {
          "astronomical" : "0.3621542126",
          "lunar" : "140.8779907227",
          "kilometers" : "54177500",
          "miles" : "33664336"
        },
        "orbiting_body" : "Earth"
      } ],
      "orbital_data" : {
        "orbit_id" : "24",
        "orbit_determination_date" : "2017-04-06 08:37:03",
        "orbit_uncertainty" : "4",
        "minimum_orbit_intersection" : ".238911",
        "jupiter_tisserand_invariant" : "3.120",
        "epoch_osculation" : "2458000.5",
        "eccentricity" : ".5477436033878028",
        "semi_major_axis" : "2.687523531590887",
        "inclination" : "9.974377555366258",
        "ascending_node_longitude" : "239.0054795050808",
        "orbital_period" : "1609.262311038533",
        "perihelion_distance" : "1.215449708207781",
        "perihelion_argument" : "201.4785197820678",
        "aphelion_distance" : "4.159597354973994",
        "perihelion_time" : "2458598.664301465242",
        "mean_anomaly" : "226.1876643413598",
        "mean_motion" : ".223704984284181",
        "equinox" : "J2000"
      }
    }, {
      "links" : {
        "self" : "https://api.nasa.gov/neo/rest/v1/neo/2468462?api_key=t0TVs3DtDT2H8Oy2Zy8m2eVrNsAVKAexjcZXUckd"
      },
      "neo_reference_id" : "2468462",
      "name" : "468462 (2004 BS102)",
      "nasa_jpl_url" : "http://ssd.jpl.nasa.gov/sbdb.cgi?sstr=2468462",
      "absolute_magnitude_h" : 19.2,
      "estimated_diameter" : {
        "kilometers" : {
          "estimated_diameter_min" : 0.3841978911,
          "estimated_diameter_max" : 0.8590926012
        },
        "meters" : {
          "estimated_diameter_min" : 384.1978910643,
          "estimated_diameter_max" : 859.0926012318
        },
        "miles" : {
          "estimated_diameter_min" : 0.2387294278,
          "estimated_diameter_max" : 0.5338152287
        },
        "feet" : {
          "estimated_diameter_min" : 1260.4918089193,
          "estimated_diameter_max" : 2818.5453698252
        }
      },
      "is_potentially_hazardous_asteroid" : false,
      "close_approach_data" : [ {
        "close_approach_date" : "2014-12-08",
        "epoch_date_close_approach" : 1418025600000,
        "relative_velocity" : {
          "kilometers_per_second" : "12.7503006583",
          "kilometers_per_hour" : "45901.0823697778",
          "miles_per_hour" : "28521.1475424877"
        },
        "miss_distance" : {
          "astronomical" : "0.4634656596",
          "lunar" : "180.2881469727",
          "kilometers" : "69333480",
          "miles" : "43081824"
        },
        "orbiting_body" : "Earth"
      } ],
      "orbital_data" : {
        "orbit_id" : "35",
        "orbit_determination_date" : "2017-04-06 09:19:22",
        "orbit_uncertainty" : "0",
        "minimum_orbit_intersection" : ".19132",
        "jupiter_tisserand_invariant" : "4.002",
        "epoch_osculation" : "2458000.5",
        "eccentricity" : ".3855099252594685",
        "semi_major_axis" : "1.706101311826602",
        "inclination" : "25.65229668206097",
        "ascending_node_longitude" : "126.8421848670158",
        "orbital_period" : "813.9648525573359",
        "perihelion_distance" : "1.048382322619248",
        "perihelion_argument" : "244.7430094189016",
        "aphelion_distance" : "2.363820301033957",
        "perihelion_time" : "2457753.692168903962",
        "mean_anomaly" : "109.1580538341672",
        "mean_motion" : ".4422795393055887",
        "equinox" : "J2000"
      }
    }, {
      "links" : {
        "self" : "https://api.nasa.gov/neo/rest/v1/neo/3726012?api_key=t0TVs3DtDT2H8Oy2Zy8m2eVrNsAVKAexjcZXUckd"
      },
      "neo_reference_id" : "3726012",
      "name" : "(2015 PS228)",
      "nasa_jpl_url" : "http://ssd.jpl.nasa.gov/sbdb.cgi?sstr=3726012",
      "absolute_magnitude_h" : 28.8,
      "estimated_diameter" : {
        "kilometers" : {
          "estimated_diameter_min" : 0.0046190746,
          "estimated_diameter_max" : 0.0103285648
        },
        "meters" : {
          "estimated_diameter_min" : 4.6190746028,
          "estimated_diameter_max" : 10.328564805
        },
        "miles" : {
          "estimated_diameter_min" : 0.002870159,
          "estimated_diameter_max" : 0.0064178706
        },
        "feet" : {
          "estimated_diameter_min" : 15.1544447199,
          "estimated_diameter_max" : 33.886368555
        }
      },
      "is_potentially_hazardous_asteroid" : false,
      "close_approach_data" : [ {
        "close_approach_date" : "2014-12-08",
        "epoch_date_close_approach" : 1418025600000,
        "relative_velocity" : {
          "kilometers_per_second" : "2.989975351",
          "kilometers_per_hour" : "10763.9112635913",
          "miles_per_hour" : "6688.2758626465"
        },
        "miss_distance" : {
          "astronomical" : "0.1251754039",
          "lunar" : "48.6932296753",
          "kilometers" : "18725974",
          "miles" : "11635781"
        },
        "orbiting_body" : "Earth"
      } ],
      "orbital_data" : {
        "orbit_id" : "12",
        "orbit_determination_date" : "2017-04-06 08:32:27",
        "orbit_uncertainty" : "5",
        "minimum_orbit_intersection" : ".00430251",
        "jupiter_tisserand_invariant" : "5.822",
        "epoch_osculation" : "2458000.5",
        "eccentricity" : ".08391842453382797",
        "semi_major_axis" : "1.056768237548145",
        "inclination" : ".4389204572591648",
        "ascending_node_longitude" : "272.8372512390882",
        "orbital_period" : "396.7967023382681",
        "perihelion_distance" : ".9680859119557145",
        "perihelion_argument" : "327.4348907362859",
        "aphelion_distance" : "1.145450563140575",
        "perihelion_time" : "2457963.998566633779",
        "mean_anomaly" : "33.11649500715198",
        "mean_motion" : ".9072656044734489",
        "equinox" : "J2000"
      }
    } ]
  }
}